[{"OBJECT_NAME":"STARLINK-34577","OBJECT_ID":"2025-142Z","EPOCH":"2026-03-09T20:22:49.679904","MEAN_MOTION":14.95911073,"ECCENTRICITY":0.0002346,"INCLINATION":70.0008,"RA_OF_ASC_NODE":314.0623,"ARG_OF_PERICENTER":271.1669,"MEAN_ANOMALY":88.922,"EPHEMERIS_TYPE":0,"CLASSIFICATION_TYPE":"U","NORAD_CAT_ID":64719,"ELEMENT_SET_NO":999,"REV_AT_EPOCH":3951,"BSTAR":0.00017350703,"MEAN_MOTION_DOT":1.855e-5,"MEAN_MOTION_DDOT":0},{"OBJECT_NAME":"CZ-6A DEB","OBJECT_ID":"2022-151ADY","EPOCH":"2026-03-09T03:31:51.275136","MEAN_MOTION":14.90358805,"ECCENTRICITY":0.00492463,"INCLINATION":98.6182,"RA_OF_ASC_NODE":136.027,"ARG_OF_PERICENTER":205.5066,"MEAN_ANOMALY":154.3719,"EPHEMERIS_TYPE":0,"CLASSIFICATION_TYPE":"U","NORAD_CAT_ID":56600,"ELEMENT_SET_NO":999,"REV_AT_EPOCH":16160,"BSTAR":0.0054644315,"MEAN_MOTION_DOT":0.00054726,"MEAN_MOTION_DDOT":0}]
